
# Worst residual: 14.02 km
# MJD 59861.000000 (2022 Oct  9  0:00)
1965-058B = NORAD 01459 = Vela 3B
1 01459U 65058B   22282.49919926  .00000000  00000-0  00000-0 0 14523
2 01459 039.4091 029.9860 4554574 032.3927 095.9006 00.21506400    08

# Worst residual: 4.85 km
# MJD 59862.000000 (2022 Oct 10  0:00)
1965-058B = NORAD 01459 = Vela 3B
1 01459U 65058B   22283.49919926  .00000000  00000-0  00000-0 0 14524
2 01459 039.4127 029.9754 4555426 032.5734 172.8888 00.21481533    07

# Worst residual: 15.77 km
# MJD 59863.000000 (2022 Oct 11  0:00)
1965-058B = NORAD 01459 = Vela 3B
1 01459U 65058B   22284.49919926  .00000000  00000-0  00000-0 0 14525
2 01459 039.4183 029.9668 4553555 032.5409 250.2694 00.21467020    04

# Worst residual: 54.39 km
# MJD 59864.000000 (2022 Oct 12  0:00)
1965-058B = NORAD 01459 = Vela 3B
1 01459U 65058B   22285.49919926  .00000000  00000-0  00000-0 0 14526
2 01459 039.4210 029.9732 4578380 032.3620 327.8965 00.21360014    00

# Worst residual: 41.74 km
# MJD 59865.000000 (2022 Oct 13  0:00)
1965-058B = NORAD 01459 = Vela 3B
1 01459U 65058B   22286.49919926  .00000000  00000-0  00000-0 0 14527
2 01459 039.4179 029.9574 4568403 032.7839 044.7750 00.21421164    00

# Worst residual: 3.34 km
# MJD 59866.000000 (2022 Oct 14  0:00)
1965-058B = NORAD 01459 = Vela 3B
1 01459U 65058B   22287.49919926  .00000000  00000-0  00000-0 0 14528
2 01459 039.4216 029.9472 4554323 032.6819 122.3397 00.21481484    03

# Worst residual: 1.63 km
# MJD 59867.000000 (2022 Oct 15  0:00)
1965-058B = NORAD 01459 = Vela 3B
1 01459U 65058B   22288.49919926  .00000000  00000-0  00000-0 0 14529
2 01459 039.4292 029.9389 4556206 032.7155 199.6060 00.21486384    08

# Worst residual: 6.20 km
# MJD 59868.000000 (2022 Oct 16  0:00)
1965-058B = NORAD 01459 = Vela 3B
1 01459U 65058B   22289.49919926  .00000000  00000-0  00000-0 0 14520
2 01459 039.4379 029.9379 4556604 032.7254 276.9186 00.21481816    08

# Worst residual: 19.46 km
# MJD 59869.000000 (2022 Oct 17  0:00)
1965-058B = NORAD 01459 = Vela 3B
1 01459U 65058B   22290.49919926  .00000000  00000-0  00000-0 0 14522
2 01459 039.4426 029.9326 4566284 032.7730 354.2214 00.21447084    08

# Worst residual: 15.97 km
# MJD 59870.000000 (2022 Oct 18  0:00)
1965-058B = NORAD 01459 = Vela 3B
1 01459U 65058B   22291.49919926  .00000000  00000-0  00000-0 0 14523
2 01459 039.4479 029.9247 4558916 032.9113 071.4124 00.21460819    07

# Worst residual: 6.03 km
# MJD 59871.000000 (2022 Oct 19  0:00)
1965-058B = NORAD 01459 = Vela 3B
1 01459U 65058B   22292.49919926  .00000000  00000-0  00000-0 0 14524
2 01459 039.4501 029.9146 4553583 032.8272 148.9381 00.21487145    07

# Worst residual: 6.75 km
# MJD 59872.000000 (2022 Oct 20  0:00)
1965-058B = NORAD 01459 = Vela 3B
1 01459U 65058B   22293.49919926  .00000000  00000-0  00000-0 0 14525
2 01459 039.4503 029.8996 4548865 032.7755 226.4143 00.21474976    09

# Worst residual: 10.86 km
# MJD 59873.000000 (2022 Oct 21  0:00)
1965-058B = NORAD 01459 = Vela 3B
1 01459U 65058B   22294.49919926  .00000000  00000-0  00000-0 0 14526
2 01459 039.4541 029.8919 4551283 032.6481 303.8867 00.21430886    04

# Worst residual: 15.40 km
# MJD 59874.000000 (2022 Oct 22  0:00)
1965-058B = NORAD 01459 = Vela 3B
1 01459U 65058B   22295.49919926  .00000000  00000-0  00000-0 0 14527
2 01459 039.4436 029.8852 4544443 032.8133 021.0176 00.21501800    06

# Worst residual: 21.63 km
# MJD 59875.000000 (2022 Oct 23  0:00)
1965-058B = NORAD 01459 = Vela 3B
1 01459U 65058B   22296.49919926  .00000000  00000-0  00000-0 0 14528
2 01459 039.4741 029.8452 4551722 032.9407 098.1304 00.21474436    06

# Worst residual: 12.36 km
# MJD 59876.000000 (2022 Oct 24  0:00)
1965-058B = NORAD 01459 = Vela 3B
1 01459U 65058B   22297.49919926  .00000000  00000-0  00000-0 0 14529
2 01459 039.5325 029.8504 4571837 033.0221 175.1097 00.21494691    08

# Worst residual: 20.38 km
# MJD 59877.000000 (2022 Oct 25  0:00)
1965-058B = NORAD 01459 = Vela 3B
1 01459U 65058B   22298.49919926  .00000000  00000-0  00000-0 0 14520
2 01459 039.5532 029.8630 4584960 032.9616 252.6959 00.21507493    08

# Worst residual: 52.75 km
# MJD 59878.000000 (2022 Oct 26  0:00)
1965-058B = NORAD 01459 = Vela 3B
1 01459U 65058B   22299.49919926  .00000000  00000-0  00000-0 0 14521
2 01459 039.5541 029.8677 4613453 032.7671 330.5181 00.21385091    09

# Worst residual: 43.33 km
# MJD 59879.000000 (2022 Oct 27  0:00)
1965-058B = NORAD 01459 = Vela 3B
1 01459U 65058B   22300.49919926  .00000000  00000-0  00000-0 0 14524
2 01459 039.5509 029.8516 4599907 033.1450 047.5328 00.21457338    04

# Worst residual: 8.02 km
# MJD 59880.000000 (2022 Oct 28  0:00)
1965-058B = NORAD 01459 = Vela 3B
1 01459U 65058B   22301.49919926  .00000000  00000-0  00000-0 0 14525
2 01459 039.5524 029.8407 4580730 033.0586 125.2642 00.21512977    07

# Worst residual: 22.74 km
# MJD 59881.000000 (2022 Oct 29  0:00)
1965-058B = NORAD 01459 = Vela 3B
1 01459U 65058B   22302.49919926  .00000000  00000-0  00000-0 0 14526
2 01459 039.5287 029.8069 4553484 033.2871 202.1998 00.21446363    06

# Worst residual: 17.70 km
# MJD 59882.000000 (2022 Oct 30  0:00)
1965-058B = NORAD 01459 = Vela 3B
1 01459U 65058B   22303.49919926  .00000000  00000-0  00000-0 0 14527
2 01459 039.5013 029.7127 4531100 033.5283 278.8178 00.21441453    03

# Worst residual: 11.12 km
# MJD 59883.000000 (2022 Oct 31  0:00)
1965-058B = NORAD 01459 = Vela 3B
1 01459U 65058B   22304.49919926  .00000000  00000-0  00000-0 0 14528
2 01459 039.5116 029.6727 4532103 033.6748 355.8936 00.21453725    06

# Worst residual: 7.53 km
# MJD 59884.000000 (2022 Nov  1  0:00)
1965-058B = NORAD 01459 = Vela 3B
1 01459U 65058B   22305.49919926  .00000000  00000-0  00000-0 0 14529
2 01459 039.5166 029.6741 4530759 033.7737 073.0168 00.21444565    09

# Worst residual: 4.66 km
# MJD 59885.000000 (2022 Nov  2  0:00)
1965-058B = NORAD 01459 = Vela 3B
1 01459U 65058B   22306.49919926  .00000000  00000-0  00000-0 0 14520
2 01459 039.5290 029.6645 4533849 033.7162 150.3350 00.21469399    09

# Worst residual: 11.00 km
# MJD 59886.000000 (2022 Nov  3  0:00)
1965-058B = NORAD 01459 = Vela 3B
1 01459U 65058B   22307.49919926  .00000000  00000-0  00000-0 0 14521
2 01459 039.5428 029.6639 4540024 033.6693 227.7633 00.21480122    06

# Worst residual: 18.42 km
# MJD 59887.000000 (2022 Nov  4  0:00)
1965-058B = NORAD 01459 = Vela 3B
1 01459U 65058B   22308.49919926  .00000000  00000-0  00000-0 0 14522
2 01459 039.5474 029.6574 4548695 033.4772 305.4054 00.21419502    08

# Worst residual: 22.58 km
# MJD 59888.000000 (2022 Nov  5  0:00)
1965-058B = NORAD 01459 = Vela 3B
1 01459U 65058B   22309.49919926  .00000000  00000-0  00000-0 0 14523
2 01459 039.5388 029.6456 4545272 033.6609 022.4809 00.21471651    07
